[{"OBJECT_NAME":"STARLINK-3634","OBJECT_ID":"2022-017AG","EPOCH":"2026-03-09T22:39:02.109888","MEAN_MOTION":15.08833811,"ECCENTRICITY":0.00012677,"INCLINATION":53.2187,"RA_OF_ASC_NODE":347.9783,"ARG_OF_PERICENTER":113.7948,"MEAN_ANOMALY":246.3177,"EPHEMERIS_TYPE":0,"CLASSIFICATION_TYPE":"U","NORAD_CAT_ID":51798,"ELEMENT_SET_NO":999,"REV_AT_EPOCH":22400,"BSTAR":3.538134e-6,"MEAN_MOTION_DOT":-2.32e-6,"MEAN_MOTION_DDOT":0},{"OBJECT_NAME":"CZ-6A R\/B","OBJECT_ID":"2026-006B","EPOCH":"2026-03-09T16:33:28.241280","MEAN_MOTION":14.62408141,"ECCENTRICITY":0.02011935,"INCLINATION":142.0446,"RA_OF_ASC_NODE":130.9033,"ARG_OF_PERICENTER":126.5877,"MEAN_ANOMALY":235.3545,"EPHEMERIS_TYPE":0,"CLASSIFICATION_TYPE":"U","NORAD_CAT_ID":67434,"ELEMENT_SET_NO":999,"REV_AT_EPOCH":807,"BSTAR":0.00025316121,"MEAN_MOTION_DOT":2.077e-5,"MEAN_MOTION_DDOT":0}]
